GLOBALSTAR M075         
1 37192U 10054E   25062.63136535 -.00000055  00000+0  26973-3 0  9999
2 37192  51.9941 142.9295 0000641 117.6015  35.3207 12.62262100662519
GLOBALSTAR M073         
1 37193U 10054F   25062.71556461 -.00000110  00000+0 -33844-4 0  9992
2 37193  52.0065  56.4125 0000485  94.6925  78.8110 12.62263860664511
GLOBALSTAR M083         
1 37739U 11033A   25062.85625106 -.00000082  00000+0  11916-3 0  9996
2 37739  51.9887   4.8583 0000547  56.9217 337.8157 12.62259852633551
GLOBALSTAR M088         
1 37740U 11033B   25062.93175237 -.00000083  00000+0  11319-3 0  9990
2 37740  51.9718 270.2111 0000844  78.8550  59.4271 12.62263801629104
GLOBALSTAR M091         
1 37741U 11033C   25062.86800910 -.00000094  00000+0  57048-4 0  9998
2 37741  51.9978 233.7715 0000856  76.6872  70.9498 12.62265465629885
GLOBALSTAR M085         
1 37742U 11033D   25062.58765066 -.00000076  00000+0  15369-3 0  9999
2 37742  51.9857 185.7558 0000758  92.4738 280.5733 12.62265840630364
GLOBALSTAR M081         
1 37743U 11033E   25062.72309258 -.00000087  00000+0  95001-4 0  9997
2 37743  51.9946 188.0640 0000953  96.4567  52.9580 12.62261189630524
GLOBALSTAR M089         
1 37744U 11033F   25062.60395902 -.00000069  00000+0  19239-3 0  9994
2 37744  51.9925 142.6763 0000838 127.6939  19.7407 12.62266730631602
